NORAD_CAT_ID,OBJECT_NAME,OBJECT_TYPE,EPOCH,MEAN_MOTION,ECCENTRICITY,INCLINATION,RA_OF_ASC_NODE,ARG_OF_PERICENTER,MEAN_ANOMALY,BSTAR,MEAN_MOTION_DOT,MEAN_MOTION_DDOT,TLE_LINE0,TLE_LINE1,TLE_LINE2,SEMIMAJOR_AXIS,PERIOD,APOGEE,PERIGEE,DECAYED
51884.0,STARLINK-3577,PAYLOAD,2022-05-30 12:06:56,15.38542545,0.0001553,53.2129,72.5024,93.2116,266.9066,-0.0083819,-0.00311145,0.0,0 STARLINK-3577,1 51884U 22022AJ  22150.50481607 -.00311145  00000-0 -83819-2 0  9993,2 51884  53.2129  72.5024 0001553  93.2116 266.9066 15.38542545 15087,6828.555,93.595,451.481,449.36,0.0
51884.0,STARLINK-3577,PAYLOAD,2022-05-30 14:00:01,15.3729908,0.0001312,53.2175,72.1132,53.5175,21.439,-0.020913,-0.00716554,0.0,0 STARLINK-3577,1 51884U 22022AJ  22150.58334491 -.00716554  00000-0 -20913-1 0  9997,2 51884  53.2175  72.1132 0001312  53.5175  21.4390 15.37299080  1307,6832.236999999999,93.671,454.99800000000016,453.206,0.0
51884.0,STARLINK-3577,PAYLOAD,2022-05-30 22:00:00,15.36790658,0.0001564999999999,53.2176,70.5497,46.06800000000001,74.3697,-0.021347,-0.00719244,0.0,0 STARLINK-3577,1 51884U 22022AJ  22150.91667824 -.00719244  00000-0 -21347-1 0  9994,2 51884  53.2176  70.5497 0001565  46.0680  74.3697 15.36790658 15153,6833.744000000002,93.702,456.67800000000005,454.539,0.0
51884.0,STARLINK-3577,PAYLOAD,2022-05-31 06:00:02,15.36276864,0.0001458,53.2173,68.9876,56.0444,109.3272,-0.021481,-0.00712339,0.0,0 STARLINK-3577,1 51884U 22022AJ  22151.25002315 -.00712339  00000-0 -21481-1 0  9997,2 51884  53.2173  68.9876 0001458  56.0444 109.3272 15.36276864  1300,6835.267,93.733,458.129,456.136,0.0
51884.0,STARLINK-3577,PAYLOAD,2022-05-31 22:00:00,15.35259519,0.0001571,53.2176,65.8642,52.4604,200.7474,-0.022341,-0.00716605,0.0,0 STARLINK-3577,1 51884U 22022AJ  22151.91667824 -.00716605  00000-0 -22341-1 0  9998,2 51884  53.2176  65.8642 0001571  52.4604 200.7474 15.35259519  1301,6838.2869999999975,93.795,461.226,459.077,0.0
51884.0,STARLINK-3577,PAYLOAD,2022-06-01 06:00:00,15.34749121,0.000128,53.2173,64.3056,67.8946,228.3435,-0.022661,-0.00715131,0.0,0 STARLINK-3577,1 51884U 22022AJ  22152.25001157 -.00715131  00000-0 -22661-1 0  9995,2 51884  53.2173  64.3056 0001280  67.8946 228.3435 15.34749121 15352,6839.803000000001,93.826,462.543,460.792,0.0
51884.0,STARLINK-3577,PAYLOAD,2022-06-01 20:00:01,15.33857921,0.0001475,53.2177,61.5781,55.8762,224.1923,-0.023397,-0.00717461,0.0,0 STARLINK-3577,1 51884U 22022AJ  22152.83334491 -.00717461  00000-0 -23397-1 0  9994,2 51884  53.2177  61.5781 0001475  55.8762 224.1923 15.33857921  1302,6842.4519999999975,93.881,465.326,463.3080000000001,0.0
51884.0,STARLINK-3577,PAYLOAD,2022-06-02 16:41:35,15.33984524,0.0002502,53.2137,57.575,91.2239,268.9051,-0.0067697,-0.0021967,0.0,0 STARLINK-3577,1 51884U 22022AJ  22153.69554468 -.00219670  00000-0 -67697-2 0  9998,2 51884  53.2137  57.5750 0002502  91.2239 268.9051 15.33984524 15587,6842.075,93.873,465.652,462.229,0.0
51884.0,STARLINK-3577,PAYLOAD,2022-06-02 19:49:36,15.33560659,0.0004124,53.2141,56.9627,310.6922,49.3723,-0.0062275,-0.00199978,0.0,0 STARLINK-3577,1 51884U 22022AJ  22153.82611155 -.00199978  00000-0 -62275-2 0  9995,2 51884  53.2141  56.9627 0004124 310.6922  49.3723 15.33560659 15606,6843.3359999999975,93.899,468.023,462.379,0.0
51884.0,STARLINK-3577,PAYLOAD,2022-06-03 02:05:19,15.33138412,0.0001587,53.2144,55.7524,48.2103,311.9035,-0.0060233999999999,-0.00191027,0.0,0 STARLINK-3577,1 51884U 22022AJ  22154.08703651 -.00191027  00000-0 -60234-2 0  9997,2 51884  53.2144  55.7524 0001587  48.2103 311.9035 15.33138412 15643,6844.593000000003,93.925,467.544,465.371,0.0
51884.0,STARLINK-3577,PAYLOAD,2022-06-03 09:55:10,15.32707198,0.00021,53.2144,54.2351,59.0187,301.1022,-0.0072396999999999,-0.00225418,0.0,0 STARLINK-3577,1 51884U 22022AJ  22154.41331336 -.00225418  00000-0 -72397-2 0  9996,2 51884  53.2144  54.2351 0002100  59.0187 301.1022 15.32707198 15693,6845.876,93.951,469.179,466.304,0.0
51884.0,STARLINK-3577,PAYLOAD,2022-06-03 19:19:08,15.32063031,0.0004709,53.2141,52.4114,315.3237,44.7386,-0.0065482,-0.00200578,0.0,0 STARLINK-3577,1 51884U 22022AJ  22154.80496319 -.00200578  00000-0 -65482-2 0  9999,2 51884  53.2141  52.4114 0004709 315.3237  44.7386 15.32063031 15759,6847.795,93.991,472.885,466.435,0.0
51884.0,STARLINK-3577,PAYLOAD,2022-06-04 00:01:11,15.3173535,0.0002732,53.2137,51.5055,92.7485,267.383,-0.0061261,-0.0018605,0.0,0 STARLINK-3577,1 51884U 22022AJ  22155.00082802 -.00186050  00000-0 -61261-2 0  9999,2 51884  53.2137  51.5055 0002732  92.7485 267.3830 15.31735350 15782,6848.772,94.011,472.508,468.766,0.0
51884.0,STARLINK-3577,PAYLOAD,2022-06-04 04:43:12,15.31587645,0.0001929,53.2133,50.595,332.8605,27.2296,-0.0064152,-0.00193701,0.0,0 STARLINK-3577,1 51884U 22022AJ  22155.19667553 -.00193701  00000-0 -64152-2 0  9994,2 51884  53.2133  50.5950 0001929 332.8605  27.2296 15.31587645 15815,6849.212,94.02,472.398,469.756,0.0
51884.0,STARLINK-3577,PAYLOAD,2022-06-05 22:00:00,15.27609978,0.0001671,53.2172,42.5999,44.4813,69.8487,-0.028403,-0.00724893,0.0,0 STARLINK-3577,1 51884U 22022AJ  22156.91667824 -.00724893  00000-0 -28403-1 0  9996,2 51884  53.2172  42.5999 0001671  44.4813  69.8487 15.27609978 16075,6861.096,94.265,484.108,481.815,0.0
51884.0,STARLINK-3577,PAYLOAD,2022-06-06 14:00:01,15.26591159,0.000148,53.2171,39.5167,61.3525,120.0437,-0.029394,-0.00727033,0.0,0 STARLINK-3577,1 51884U 22022AJ  22157.58334491 -.00727033  00000-0 -29394-1 0  9990,2 51884  53.2171  39.5167 0001480  61.3525 120.0437 15.26591159  1308,6864.149,94.328,487.03,484.99800000000016,0.0
51884.0,STARLINK-3577,PAYLOAD,2022-06-06 22:00:00,15.26078454,0.0001749,53.2172,37.9793,48.2852,165.7247,-0.029641,-0.00722185,0.0,0 STARLINK-3577,1 51884U 22022AJ  22157.91667824 -.00722185  00000-0 -29641-1 0  9994,2 51884  53.2172  37.9793 0001749  48.2852 165.7247 15.26078454  1304,6865.686,94.36,488.752,486.35,0.0
51884.0,STARLINK-3577,PAYLOAD,2022-06-07 06:00:00,15.25571449,0.0001409,53.2171,36.4414,66.7853,179.2243,-0.030316,-0.00726987,0.0,0 STARLINK-3577,1 51884U 22022AJ  22158.25001157 -.00726987  00000-0 -30316-1 0  9998,2 51884  53.2171  36.4414 0001409  66.7853 179.2243 15.25571449 16275,6867.206999999999,94.391,490.04,488.104,0.0
51884.0,STARLINK-3577,PAYLOAD,2022-06-07 14:00:01,15.25059245,0.0001408,53.2172,34.9031,64.26100000000001,213.1384,-0.030626,-0.00723401,0.0,0 STARLINK-3577,1 51884U 22022AJ  22158.58334491 -.00723401  00000-0 -30626-1 0  9996,2 51884  53.2172  34.9031 0001408  64.2610 213.1384 15.25059245  1304,6868.745,94.423,491.577,489.642,0.0
51884.0,STARLINK-3577,PAYLOAD,2022-06-07 22:00:00,15.2454967,0.0001496999999999,53.2172,33.3696,54.0334,254.14,-0.031118,-0.00723812,0.0,0 STARLINK-3577,1 51884U 22022AJ  22158.91667824 -.00723812  00000-0 -31118-1 0  9995,2 51884  53.2172  33.3696 0001497  54.0334 254.1400 15.24549670  1301,6870.275,94.454,493.169,491.112,0.0
51884.0,STARLINK-3577,PAYLOAD,2022-06-08 06:00:02,15.240417,0.0001245,53.2172,31.835,69.4406,268.9584,-0.031758,-0.00727244,0.0,0 STARLINK-3577,1 51884U 22022AJ  22159.25002315 -.00727244  00000-0 -31758-1 0  9994,2 51884  53.2172  31.8350 0001245  69.4406 268.9584 15.24041700 16439,6871.802,94.486,494.522,492.811,0.0
51884.0,STARLINK-3577,PAYLOAD,2022-06-08 14:00:01,15.23528194,0.0001312,53.2172,30.3007,60.0711,307.816,-0.031962,-0.0072119,0.0,0 STARLINK-3577,1 51884U 22022AJ  22159.58334491 -.00721190  00000-0 -31962-1 0  9994,2 51884  53.2172  30.3007 0001312  60.0711 307.8160 15.23528194  1302,6873.346,94.517,496.112,494.309,0.0
51884.0,STARLINK-3577,PAYLOAD,2022-06-08 22:00:01,15.23021738,0.0001559,53.2173,28.7707,46.5847,350.3004,-0.032734,-0.00727136,0.0,0 STARLINK-3577,1 51884U 22022AJ  22159.91668981 -.00727136  00000-0 -32734-1 0  9999,2 51884  53.2173  28.7707 0001559  46.5847 350.3004 15.23021738  1305,6874.869000000002,94.549,497.806,495.662,0.0
51884.0,STARLINK-3577,PAYLOAD,2022-06-09 14:00:01,15.21999681,0.0001508,53.2173,25.7088,50.8454,42.0135,-0.033548,-0.00723206,0.0,0 STARLINK-3577,1 51884U 22022AJ  22160.58334491 -.00723206  00000-0 -33548-1 0  9998,2 51884  53.2173  25.7088 0001508  50.8454  42.0135 15.21999681  1309,6877.946999999999,94.612,500.849,498.774,0.0
51884.0,STARLINK-3577,PAYLOAD,2022-06-09 22:00:00,15.21491184,0.0001696,53.2172,24.1827,45.8307,74.125,-0.034198,-0.00726035,0.0,0 STARLINK-3577,1 51884U 22022AJ  22160.91667824 -.00726035  00000-0 -34198-1 0  9999,2 51884  53.2172  24.1827 0001696  45.8307  74.1250 15.21491184  1300,6879.479,94.644,502.511,500.177,0.0
51884.0,STARLINK-3577,PAYLOAD,2022-06-10 00:00:00,15.21361329,0.000172,53.2174,23.8009,50.8858,165.7495,-0.0341,-0.00721511,0.0,0 STARLINK-3577,1 51884U 22022AJ  22161.00001157 -.00721511  00000-0 -34100-1 0  9998,2 51884  53.2174  23.8009 0001720  50.8858 165.7495 15.21361329 16698,6879.87,94.652,502.919,500.552,0.0
51884.0,STARLINK-3577,PAYLOAD,2022-06-10 14:00:01,15.20470462,0.0001524,53.2174,21.1276,59.9711,112.3444,-0.035144,-0.00724145,0.0,0 STARLINK-3577,1 51884U 22022AJ  22161.58334491 -.00724145  00000-0 -35144-1 0  9996,2 51884  53.2174  21.1276 0001524  59.9711 112.3444 15.20470462  1307,6882.558000000001,94.708,505.471,503.374,0.0
51884.0,STARLINK-3577,PAYLOAD,2022-06-10 22:00:00,15.19959542,0.0001713,53.2172,19.6048,51.2848,146.2903,-0.0356,-0.00722759,0.0,0 STARLINK-3577,1 51884U 22022AJ  22161.91667824 -.00722759  00000-0 -35600-1 0  9998,2 51884  53.2172  19.6048 0001713  51.2848 146.2903 15.19959542  1305,6884.1,94.739,507.144,504.786,0.0
51884.0,STARLINK-3577,PAYLOAD,2022-06-11 06:00:00,15.19451067,0.0001491,53.2173,18.0805,62.7319,159.4906,-0.036271,-0.0072531,0.0,0 STARLINK-3577,1 51884U 22022AJ  22162.25001157 -.00725310  00000-0 -36271-1 0  9998,2 51884  53.2173  18.0805 0001491  62.7319 159.4906 15.19451067 16880,6885.635,94.771,508.527,506.474,0.0
